SatCatId,ObjectName,LaunchYear,OrbitalPeriod,LaunchMass,StatusCode,Inclination,Status,UcsData,OrbitClassEstimated,LaunchSiteCountry,Owner,UseType,Purpose,LaunchVehicleClass,TLE1,TLE2,MeanMotion,Eccentricity,OrbitClass
13782,SAKURA-2A (CS-2A),1983,1448.61,-1.0,-,12.21,Inactive,0,GSO,Japan,Japan,Unknown,Unknown,Unknown,1 13782U 83006A   23090.82688406  .00000048  00000+0  00000+0 0  9994,2 13782  12.2126 328.7848 0007024 312.4102 239.4190  0.99405833116189,0.99405833,0.0007024,GSO
13844,SSA,1983,105.71,-1.0,UNK,63.31,Inactive,0,LEO,USA,USA,Unknown,Unknown,Unknown,1 13844U 83008E   23091.78445871  .00010428  00000+0  96644-3 0  9994,2 13844  63.3066 344.4642 0847775 113.9441 255.2698 13.62200178198100,13.62200178,0.0847775,LEO
13845,SSB,1983,105.67,-1.0,UNK,63.31,Inactive,0,LEO,USA,USA,Unknown,Unknown,Unknown,1 13845U 83008F   23091.13329672  .00011817  00000+0  10916-2 0  9994,2 13845  63.3061 339.1818 0845077 114.3636 254.7949 13.62776561183983,13.62776561,0.0845077,LEO
13874,SSC,1983,105.59,-1.0,UNK,63.3,Inactive,0,LEO,USA,USA,Unknown,Unknown,Unknown,1 13874U 83008H   23091.83964031  .00012457  00000+0  10481-2 0  9995,2 13874  63.2991 332.8118 0852047 114.4800 254.7478 13.63837012190602,13.63837012,0.0852047,LEO
13875,MOLNIYA 3-20,1983,717.23,-1.0,UNK,62.45,Inactive,0,MEO,Russia,Russia/USSR,Unknown,Unknown,Unknown,1 13875U 83015A   23091.06852444 -.00001413  00000+0 -82868-3 0  9994,2 13875  62.4448 307.1656 7363821 260.9729  17.1495  2.00762439229482,2.00762439,0.7363821,MEO
13878,EKRAN 10,1983,1515.3,-1.0,-,12.84,Inactive,0,HEO,Kazakhstan,Russia/USSR,Unknown,Unknown,Unknown,1 13878U 83016A   23090.86924421 -.00000138  00000+0  00000+0 0  9996,2 13878  12.8359 319.2670 0030860   4.7136 166.7252  0.95031025108028,0.95031025,0.003086,HEO
13890,MOLNIYA 1-56,1983,720.25,-1.0,UNK,62.8,Inactive,0,MEO,Russia,Russia/USSR,Unknown,Unknown,Unknown,1 13890U 83019A   23089.76455338  .00001515  00000+0  12439-2 0  9997,2 13890  62.7988 331.7722 7436122 266.6959  14.5142  1.99932747292322,1.99932747,0.7436122,MEO
13901,ASTRON,1983,5924.64,-1.0,-,75.78,Inactive,0,HEO,Kazakhstan,Russia/USSR,Unknown,Unknown,Unknown,1 13901U 83020A   23093.01177785  .00000020  00000+0  00000+0 0  9990,2 13901  75.9008  68.4342 5710660   8.4926 358.5021  0.24300467  8307,0.24300467,0.571066,HEO
13912,OV2-3,1965,294.92,-1.0,UNK,26.6,Inactive,0,MEO,USA,USA,Unknown,Unknown,Unknown,1 13912U 65108V   23090.71689883  .00012908  00000+0  15728-2 0  9994,2 13912  26.5958 217.4981 5469073 275.6917  27.4748  4.88308905510694,4.88308905,0.5469073,MEO
13916,COSMOS 1447,1983,104.71,-1.0,-,82.95,Inactive,0,LEO,Russia,Russia/USSR,Unknown,Unknown,Unknown,1 13916U 83021A   23091.57133068  .00000100  00000+0  88899-4 0  9998,2 13916  82.9457 148.1612 0036795 222.1484 248.4775 13.75163150  7908,13.7516315,0.0036795,LEO
13923,NOAA 8,1983,100.77,-1.0,-,98.71,Inactive,0,LEO,USA,USA,Unknown,Unknown,Unknown,1 13923U 83022A   23091.51226299  .00000406  00000+0  17818-3 0  9991,2 13923  98.7110  86.2923 0016246  87.4816 272.8225 14.28947441 83541,14.28947441,0.0016246,LEO
13949,COSMOS 1448,1983,104.65,-1.0,UNK,82.96,Inactive,0,LEO,Russia,Russia/USSR,Unknown,Unknown,Unknown,1 13949U 83023A   23091.45700931  .00000131  00000+0  11885-3 0  9996,2 13949  82.9580 222.5314 0030332 160.2571 264.3795 13.75960639  8577,13.75960639,0.0030332,LEO
13969,TDRS 1,1983,1458.29,-1.0,-,10.66,Inactive,0,GSO,USA,USA,Unknown,Unknown,Unknown,1 13969U 83026B   23090.57307981 -.00000254  00000+0  00000+0 0  9991,2 13969  10.6543 326.5789 0017129 229.0178 336.3173  0.98745191118772,0.98745191,0.0017129,GSO
13974,RADUGA 12,1983,1435.83,-1.0,-,10.62,Inactive,0,GSO,Kazakhstan,Russia/USSR,Unknown,Unknown,Unknown,1 13974U 83028A   23090.66903472 -.00000173  00000+0  00000+0 0  9996,2 13974  10.6187 315.6517 0003186 104.2588  91.1351  1.00290124157612,1.00290124,0.0003186,GSO
13984,SATCOM 1R,1983,1442.18,-1.0,UNK,14.23,Inactive,0,GSO,USA,USA,Unknown,Unknown,Unknown,1 13984U 83030A   23090.13506330 -.00000198  00000+0  00000+0 0  9991,2 13984  14.2250 347.2545 0011179  95.2744  74.1868  0.99848497118755,0.99848497,0.0011179,GSO
13991,COSMOS 1452,1983,100.47,-1.0,UNK,74.05,Inactive,0,LEO,Russia,Russia/USSR,Unknown,Unknown,Unknown,1 13991U 83031A   23091.72610012  .00000313  00000+0  12291-3 0  9996,2 13991  74.0499 185.1626 0015091  82.1050  29.4517 14.33267939 88842,14.33267939,0.0015091,LEO
14032,COSMOS 1455,1983,94.43,-1.0,UNK,82.51,Inactive,0,LEO,Russia,Russia/USSR,Unknown,Unknown,Unknown,1 14032U 83037A   23091.63083151  .00011565  00000+0  46044-3 0  9991,2 14032  82.5141 153.6279 0016221 116.4877 243.8027 15.24998066182313,15.24998066,0.0016221,LEO
14050,GOES 6,1983,1436.76,-1.0,-,12.07,Inactive,0,GSO,USA,USA,Unknown,Unknown,Unknown,1 14050U 83041A   23091.21785397 -.00000189  00000+0  00000+0 0  9990,2 14050  12.0634 329.6094 0003645 134.5302  73.5032  1.00225292204253,1.00225292,0.0003645,GSO
14057,COSMOS 1459,1983,104.6,-1.0,UNK,82.97,Inactive,0,LEO,Russia,Russia/USSR,Unknown,Unknown,Unknown,1 14057U 83042A   23091.88537605  .00000104  00000+0  90180-4 0  9997,2 14057  82.9740 327.0973 0048449 221.0968 138.6536 13.76640977  4687,13.76640977,0.0048449,LEO
14064,COSMOS 1461,1983,96.02,-1.0,UNK,65.0,Inactive,0,LEO,Kazakhstan,Russia/USSR,Unknown,Unknown,Unknown,1 14064U 83044A   23091.56117100  .00009109  00000+0  65928-3 0  9991,2 14064  64.9998 207.9697 0109250 284.0534  74.8460 14.99785052 39398,14.99785052,0.010925,LEO
14077,INTELSAT 506,1983,1452.21,-1.0,-,13.76,Inactive,0,GSO,USA,INTELSAT,Unknown,Unknown,Unknown,1 14077U 83047A   23091.22341091 -.00000024  00000+0  00000+0 0  9993,2 14077  13.7556 341.9596 0036516 327.7380 223.3344  0.99158933112457,0.99158933,0.0036516,GSO
14084,COSMOS 1464,1983,104.76,-1.0,UNK,82.95,Inactive,0,LEO,Russia,Russia/USSR,Unknown,Unknown,Unknown,1 14084U 83048A   23091.29686536  .00000089  00000+0  77129-4 0  9996,2 14084  82.9499 353.2578 0031266  60.7451  59.5895 13.74524659998805,13.74524659,0.0031266,LEO
14128,EUTELSAT 1-F1 (ECS 1),1983,1456.41,-1.0,-,13.34,Inactive,0,GSO,French Guiana,EUTELSAT,Unknown,Unknown,Unknown,1 14128U 83058A   23091.00804302 -.00000281  00000+0  00000+0 0  9992,2 14128  13.3413 337.9057 0011363 125.1558 234.9337  0.98872966 35114,0.98872966,0.0011363,GSO
14129,PHASE 3B (AO-10),1983,699.48,-1.0,P,27.04,Active,0,MEO,French Guiana,Germany,Unknown,Unknown,Unknown,1 14129U 83058B   23090.21715471 -.00000170  00000+0  00000+0 0  9990,2 14129  27.0386  49.2832 6037512 160.0665 240.8784  2.05867554271310,2.05867554,0.6037512,MEO
14133,NAHUEL I2 (ANIK C2),1983,1452.76,-1.0,-,14.07,Inactive,0,GSO,USA,Argentina,Unknown,Unknown,Unknown,1 14133U 83059B   23090.67726970 -.00000067  00000+0  00000+0 0  9997,2 14133  14.0658 344.6544 0040682  92.5518 267.8994  0.99120860 34511,0.9912086,0.0040682,GSO
14134,PALAPA B1,1983,1437.67,-1.0,-,13.08,Inactive,0,GSO,USA,Indonesia,Unknown,Unknown,Unknown,1 14134U 83059C   23090.80907201  .00000128  00000+0  00000+0 0  9998,2 14134  13.0758 337.9643 0006205  92.4737  84.1645  1.00163109109031,1.00163109,0.0006205,GSO
14139,OPS 3899,1983,111.29,-1.0,UNK,96.66,Inactive,0,LEO,USA,USA,Unknown,Unknown,Unknown,1 14139U 83060C   23091.49318572 -.00000187  00000+0 -60798-3 0  9999,2 14139  96.6641  68.8704 0001857  53.9722 306.1561 12.93911048184175,12.93911048,0.0001857,LEO
14143,GB 1,1983,105.74,-1.0,UNK,63.3,Inactive,0,LEO,USA,USA,Unknown,Unknown,Unknown,1 14143U 83056C   23091.58197312  .00011886  00000+0  10100-2 0  9993,2 14143  63.3005 214.4531 0860230 111.0756 258.4394 13.61919081185796,13.61919081,0.086023,LEO
14144,GB 2,1983,105.75,-1.0,UNK,63.3,Inactive,0,LEO,USA,USA,Unknown,Unknown,Unknown,1 14144U 83056D   23091.51805303  .00012539  00000+0  10730-2 0  9998,2 14144  63.3002 216.6601 0860022 111.3983 258.0972 13.61752849195145,13.61752849,0.0860022,LEO
14147,COSMOS 1470,1983,95.03,-1.0,UNK,82.48,Inactive,0,LEO,Russia,Russia/USSR,Unknown,Unknown,Unknown,1 14147U 83061A   23091.52645186  .00006890  00000+0  36355-3 0  9994,2 14147  82.4791 119.3182 0014836 175.4484 184.6886 15.15288470923950,15.1528847,0.0014836,LEO
14154,HILAT,1983,100.22,-1.0,UNK,82.03,Inactive,0,LEO,USA,USA,Unknown,Unknown,Unknown,1 14154U 83063A   23091.74807855  .00000798  00000+0  26253-3 0  9998,2 14154  82.0271 169.5994 0039261 238.0873 243.5725 14.36912399 79362,14.36912399,0.0039261,LEO
14158,GALAXY 1 (G-1),1983,1437.75,-1.0,-,14.44,Inactive,0,GSO,USA,USA,Unknown,Unknown,Unknown,1 14158U 83065A   23091.48831088 -.00000171  00000+0  00000+0 0  9994,2 14158  14.4354 350.5623 0002538  77.0462  95.9989  1.00156062 34883,1.00156062,0.0002538,GSO
14160,GORIZONT 7,1983,1464.2,-1.0,-,11.6,Inactive,0,GSO,Kazakhstan,Russia/USSR,Unknown,Unknown,Unknown,1 14160U 83066A   23091.29077411 -.00000061  00000+0  00000+0 0  9997,2 14160  11.5985 321.0347 0009464 326.0261 222.0164  0.98347954143213,0.98347954,0.0009464,GSO
14171,COSMOS 1473,1983,114.4,-1.0,UNK,74.02,Inactive,0,LEO,Russia,Russia/USSR,Unknown,Unknown,Unknown,1 14171U 83069A   23091.52840462  .00000005  00000+0  12417-3 0  9998,2 14171  74.0233 133.6180 0044762 244.1897 186.9208 12.58735793825970,12.58735793,0.0044762,LEO
14172,COSMOS 1474,1983,114.59,-1.0,UNK,74.03,Inactive,0,LEO,Russia,Russia/USSR,Unknown,Unknown,Unknown,1 14172U 83069B   23091.76625767 -.00000013  00000+0  21369-4 0  9991,2 14172  74.0264 209.6263 0033400 338.3133 190.8181 12.56645188823212,12.56645188,0.00334,LEO
14173,COSMOS 1475,1983,114.78,-1.0,UNK,74.02,Inactive,0,LEO,Russia,Russia/USSR,Unknown,Unknown,Unknown,1 14173U 83069C   23091.53312361  .00000022  00000+0  23591-3 0  9997,2 14173  74.0232 286.0515 0021348  59.9424   4.6322 12.54551096819928,12.54551096,0.0021348,LEO
14174,COSMOS 1476,1983,114.97,-1.0,UNK,74.03,Inactive,0,LEO,Russia,Russia/USSR,Unknown,Unknown,Unknown,1 14174U 83069D   23091.21975417 -.00000010  00000+0  39454-4 0  9994,2 14174  74.0299 359.8414 0010772 147.4079  21.4456 12.52514701816930,12.52514701,0.0010772,LEO
